{
  "fetched_at": "2026-06-25T14:00:54.186603+00:00",
  "satellites": {
    "57166": {
      "name": "Meteor M2-3",
      "tle_line1": "1 57166U 23091A   26176.31915875 -.00000010  00000+0  14586-4 0  9990",
      "tle_line2": "2 57166  98.6079 231.1311 0004749 135.4529 224.7033 14.24047374155672"
    },
    "59051": {
      "name": "Meteor M2-4",
      "tle_line1": "1 59051U 24039A   26176.27276579  .00000014  00000+0  25921-4 0  9992",
      "tle_line2": "2 59051  98.7013 135.4693 0007728 139.1326 221.0433 14.22430350120417"
    },
    "38771": {
      "name": "MetOp-B",
      "tle_line1": "1 38771U 12049A   26176.28459484  .00000092  00000+0  61845-4 0  9996",
      "tle_line2": "2 38771  98.6500 227.6222 0001727 356.4356   3.6809 14.21441366714413"
    },
    "43689": {
      "name": "MetOp-C",
      "tle_line1": "1 43689U 18087A   26176.23298019  .00000079  00000+0  55995-4 0  9992",
      "tle_line2": "2 43689  98.6641 235.6894 0002010 119.2975 240.8404 14.21514070395970"
    },
    "60543": {
      "name": "Arctic Weather Satellite",
      "tle_line1": "1 60543U 24149CD  26176.14632007  .00000847  00000+0  93887-4 0  9990",
      "tle_line2": "2 60543  97.6799 246.3845 0003672  88.9769 271.1869 14.89793751100485"
    }
  }
}